IRIDIUM 155             
1 43573U 18061E   25166.82637212 -.00000002  00000+0 -76153-5 0  9999
2 43573  86.3986 209.7400 0002610  89.0423 271.1072 14.34217698360847
IRIDIUM 154             
1 43574U 18061F   25166.52826796  .00000117  00000+0  34830-4 0  9994
2 43574  86.3991 209.9798 0002356  91.6343 268.5123 14.34218903360851
IRIDIUM 163             
1 43575U 18061G   25166.85808437  .00000104  00000+0  30078-4 0  9999
2 43575  86.3986 209.7688 0002447  96.0552 264.0923 14.34217362360873
IRIDIUM 156             
1 43576U 18061H   25166.83271388  .00000163  00000+0  51124-4 0  9997
2 43576  86.3987 209.7865 0002601  85.9128 274.2365 14.34218707360866
IRIDIUM 164             
1 43577U 18061J   25166.39507282  .00000126  00000+0  37808-4 0  9996
2 43577  86.3990 210.0037 0002150  88.3356 271.8086 14.34216954360849
IRIDIUM 159             
1 43578U 18061K   25166.85174119  .00000109  00000+0  31939-4 0  9997
2 43578  86.3987 209.7575 0002138  96.5211 263.6228 14.34218090360878
IRIDIUM 180             
1 43922U 19002A   25166.92100608  .00000035  00000+0  53771-5 0  9993
2 43922  86.3980 146.7097 0002355  89.1457 271.0008 14.34217874336493
IRIDIUM 176             
1 43923U 19002B   25166.47321120  .00000822  00000+0  12648-3 0  9998
2 43923  86.6104 146.8903 0003160  91.3503 268.8076 14.72255777345297
IRIDIUM 168             
1 43924U 19002C   25166.91466346 -.00000039  00000+0 -20904-4 0  9995
2 43924  86.3986 146.7794 0002217  87.8357 272.3092 14.34217381336474
IRIDIUM 173             
1 43925U 19002D   25166.48336782  .00000020  00000+0 -75293-7 0  9991
2 43925  86.3979 146.8635 0002456  89.4497 270.6981 14.34217677336397
IRIDIUM 169             
1 43926U 19002E   25166.76289396  .00000144  00000+0  40410-4 0  9997
2 43926  86.4248 178.3272 0003819  86.3551 273.8084 14.38607397337549
IRIDIUM 172             
1 43927U 19002F   25166.47702363  .00000125  00000+0  37550-4 0  9990
2 43927  86.3979 146.8730 0002243  94.7398 265.4054 14.34217702336402
IRIDIUM 175             
1 43928U 19002G   25166.87597600  .00000945  00000+0  14587-3 0  9995
2 43928  86.1497  99.3129 0002989  66.7315 293.4216 14.72240236345349
IRIDIUM 171             
1 43929U 19002H   25166.66730255  .00000083  00000+0  22457-4 0  9997
2 43929  86.3987 147.0590 0002182  78.9809 281.1633 14.34217653336428
IRIDIUM 170             
1 43930U 19002J   25166.41142348  .00000385  00000+0  57094-4 0  9992
2 43930  86.6104 146.9207 0002935  84.9008 275.2544 14.72254775345299
IRIDIUM 167             
1 43931U 19002K   25166.66095951  .00000197  00000+0  63171-4 0  9991
2 43931  86.3980 146.8153 0002512  77.3588 282.7889 14.34218664336423
IRIDIUM 181             
1 56726U 23068S   25166.56196413  .00000296  00000+0  81916-4 0  9995
2 56726  86.4527 209.9114 0001939  82.1843 277.9578 14.43312019109557
IRIDIUM 177             
1 56727U 23068T   25166.92186981  .00001024  00000+0  13121-3 0  9997
2 56727  86.1977 142.7290 0002545  82.9261 277.2249 14.80229300112181
IRIDIUM 174             
1 56728U 23068U   25166.94281542  .00000888  00000+0  13698-3 0  9995
2 56728  86.6114 146.8088 0002700 100.3482 259.8040 14.72258707112137
IRIDIUM 178             
1 56729U 23068V   25166.57296097  .00000430  00000+0  53075-4 0  9993
2 56729  86.6568 178.5064 0002568  94.6119 265.5396 14.80232555112131
IRIDIUM 179             
1 56730U 23068W   25166.56760244  .00000632  00000+0  79705-4 0  9996
2 56730  86.6810 186.3738 0002658  89.7823 270.3703 14.80234613112138
